NAVSTAR 77 (USA 289)    
1 43873U 18109A   24212.98264178 -.00000057  00000+0  00000+0 0  9991
2 43873  55.3118 119.2972 0029580 193.7314 177.2284  2.00557919 41265
